NORAD_CAT_ID,OBJECT_NAME,OBJECT_TYPE,EPOCH,MEAN_MOTION,ECCENTRICITY,INCLINATION,RA_OF_ASC_NODE,ARG_OF_PERICENTER,MEAN_ANOMALY,BSTAR,MEAN_MOTION_DOT,MEAN_MOTION_DDOT,TLE_LINE0,TLE_LINE1,TLE_LINE2,SEMIMAJOR_AXIS,PERIOD,APOGEE,PERIGEE,DECAYED
53781.0,STARLINK-4462,PAYLOAD,2023-02-15 20:55:07,15.08841142,0.0001309,53.2154,252.1922,82.5387,277.5754,3.6212e-05,2.88e-06,0.0,0 STARLINK-4462,1 53781U 22111J   23046.87161880  .00000288  00000-0  36212-4 0  9991,2 53781  53.2154 252.1922 0001309  82.5387 277.5754 15.08841142 24945,6917.877,95.437,540.647,538.836,0.0
53781.0,STARLINK-4462,PAYLOAD,2023-02-16 06:27:26,15.0885109,0.0001008,53.2203,250.4081,260.7948,99.293,-0.00022957,-3.941e-05,0.0,0 STARLINK-4462,1 53781U 22111J   23047.26905264 -.00003941  00000-0 -22957-3 0  9998,2 53781  53.2203 250.4081 0001008 260.7948  99.2930 15.08851090 24191,6917.846,95.437,540.409,539.014,0.0
53781.0,STARLINK-4462,PAYLOAD,2023-02-16 15:59:45,15.08838839,0.0001156,53.2156,248.6223,86.9355,273.1769,2.0501e-06,-2.55e-06,0.0,0 STARLINK-4462,1 53781U 22111J   23047.66650038 -.00000255  00000-0  20501-5 0  9997,2 53781  53.2156 248.6223 0001156  86.9355 273.1769 15.08838839 24255,6917.884,95.438,540.549,538.949,0.0
53781.0,STARLINK-4462,PAYLOAD,2023-02-17 01:32:03,15.08850973,0.0001374,53.215,246.8379,88.1759,271.9391,4.5998e-05,4.44e-06,0.0,0 STARLINK-4462,1 53781U 22111J   23048.06392978  .00000444  00000-0  45998-4 0  9993,2 53781  53.2150 246.8379 0001374  88.1759 271.9391 15.08850973 24312,6917.847,95.437,540.662,538.761,0.0
53781.0,STARLINK-4462,PAYLOAD,2023-02-17 19:01:19,15.08833009,0.0002328,53.2114,243.5656,91.6741,268.4518,-3.9041e-06,-3.5e-06,0.0,0 STARLINK-4462,1 53781U 22111J   23048.79258535 -.00000350  00000-0 -39041-5 0  9994,2 53781  53.2114 243.5656 0002328  91.6741 268.4518 15.08833009 24429,6917.902,95.438,541.377,538.156,0.0
53781.0,STARLINK-4462,PAYLOAD,2023-02-17 20:36:42,15.08832699,0.0001272,53.2155,243.2694,87.32,272.7938,-2.6899e-05,-7.16e-06,0.0,0 STARLINK-4462,1 53781U 22111J   23048.85882552 -.00000716  00000-0 -26899-4 0  9995,2 53781  53.2155 243.2694 0001272  87.3200 272.7938 15.08832699 25241,6917.903,95.438,540.648,538.888,0.0
53781.0,STARLINK-4462,PAYLOAD,2023-02-18 12:30:33,15.08833568,9.17e-05,53.2157,240.2962,209.8281,150.2659,7.5893e-06,-1.67e-06,0.0,0 STARLINK-4462,1 53781U 22111J   23049.52121895 -.00000167  00000-0  75893-5 0  9994,2 53781  53.2157 240.2962 0000917 209.8281 150.2659 15.08833568 24530,6917.9,95.438,540.399,539.131,0.0
53781.0,STARLINK-4462,PAYLOAD,2023-02-19 12:21:20,15.08832698,0.0001251,53.2164,235.8349,89.0032,271.1104,0.0001078,1.428e-05,0.0,0 STARLINK-4462,1 53781U 22111J   23050.51482311  .00001428  00000-0  10780-3 0  9990,2 53781  53.2164 235.8349 0001251  89.0032 271.1104 15.08832698 25498,6917.903,95.438,540.633,538.902,0.0
53781.0,STARLINK-4462,PAYLOAD,2023-02-19 15:32:06,15.08838961,0.0001242,53.2167,235.2404,87.2188,272.8947,5.0925e-05,5.23e-06,0.0,0 STARLINK-4462,1 53781U 22111J   23050.64730195  .00000523  00000-0  50925-4 0  9991,2 53781  53.2167 235.2404 0001242  87.2188 272.8947 15.08838961 24704,6917.884,95.438,540.608,538.889,0.0
53781.0,STARLINK-4462,PAYLOAD,2023-02-19 21:53:39,15.08839727,0.000123,53.2168,234.0514,85.221,274.8923,8.6923e-05,1.096e-05,0.0,0 STARLINK-4462,1 53781U 22111J   23050.91226001  .00001096  00000-0  86923-4 0  9990,2 53781  53.2168 234.0514 0001230  85.2210 274.8923 15.08839727 25556,6917.881,95.438,540.597,538.895,0.0
53781.0,STARLINK-4462,PAYLOAD,2023-02-20 21:44:26,15.08841698,0.0001269,53.2191,229.5929,80.8017,279.3119,1.1808e-05,-1e-06,0.0,0 STARLINK-4462,1 53781U 22111J   23051.90586157 -.00000100  00000-0  11808-4 0  9997,2 53781  53.2191 229.5929 0001269  80.8017 279.3119 15.08841698 24892,6917.875,95.437,540.618,538.862,0.0
53781.0,STARLINK-4462,PAYLOAD,2023-02-21 12:02:57,15.08815615,0.0001249,53.2179,226.9167,77.0278,283.0854,-0.00018911,-3.294e-05,0.0,0 STARLINK-4462,1 53781U 22111J   23052.50204943 -.00003294  00000-0 -18911-3 0  9993,2 53781  53.2179 226.9167 0001249  77.0278 283.0854 15.08815615 24986,6917.955,95.439,540.684,538.956,0.0
53781.0,STARLINK-4462,PAYLOAD,2023-02-21 18:24:30,15.08812232,0.0001247,53.2183,225.7269,78.5548,281.5584,-0.00020883,-3.607e-05,0.0,0 STARLINK-4462,1 53781U 22111J   23052.76701608 -.00003607  00000-0 -20883-3 0  9990,2 53781  53.2183 225.7269 0001247  78.5548 281.5584 15.08812232 25835,6917.965,95.439,540.693,538.968,0.0
53781.0,STARLINK-4462,PAYLOAD,2023-02-22 11:53:43,15.08833037,5.65e-05,53.2188,222.4576,57.4969,302.6078,-1.4435e-05,-5.17e-06,0.0,0 STARLINK-4462,1 53781U 22111J   23053.49564115 -.00000517  00000-0 -14435-4 0  9995,2 53781  53.2188 222.4576 0000565  57.4969 302.6078 15.08833037 25132,6917.902,95.438,540.158,539.376,0.0
53781.0,STARLINK-4462,PAYLOAD,2023-02-22 13:29:05,15.08841746,0.0001011,53.2181,222.157,73.8112,286.2991,4.4424e-05,4.19e-06,0.0,0 STARLINK-4462,1 53781U 22111J   23053.56187399  .00000419  00000-0  44424-4 0  9998,2 53781  53.2181 222.1570 0001011  73.8112 286.2991 15.08841746 25952,6917.875,95.437,540.439,539.041,0.0
53781.0,STARLINK-4462,PAYLOAD,2023-02-22 18:15:14,15.0884919,0.0001223,53.2179,221.2655,69.4403,290.672,0.0001061,1.402e-05,0.0,0 STARLINK-4462,1 53781U 22111J   23053.76058717  .00001402  00000-0  10610-3 0  9993,2 53781  53.2179 221.2655 0001223  69.4403 290.6720 15.08849190 25176,6917.852,95.437,540.563,538.871,0.0
53781.0,STARLINK-4462,PAYLOAD,2023-02-22 19:50:37,15.08849404,0.0001233,53.218,220.9682,69.2473,290.8651,0.00010802,1.432e-05,0.0,0 STARLINK-4462,1 53781U 22111J   23053.82682680  .00001432  00000-0  10802-3 0  9998,2 53781  53.2180 220.9682 0001233  69.2473 290.8651 15.08849404 25993,6917.852,95.437,540.57,538.864,0.0
53781.0,STARLINK-4462,PAYLOAD,2023-02-23 11:44:29,15.088348,0.0001224,53.218,217.9948,69.5812,290.5312,0.00024451,3.605e-05,0.0,0 STARLINK-4462,1 53781U 22111J   23054.48923130  .00003605  00000-0  24451-3 0  9998,2 53781  53.2180 217.9948 0001224  69.5812 290.5312 15.08834800 25281,6917.896,95.438,540.608,538.915,0.0
53781.0,STARLINK-4462,PAYLOAD,2023-02-23 18:06:01,15.08841607,0.0001259,53.2182,216.8055,72.0556,288.0574,0.00030555,4.578e-05,0.0,0 STARLINK-4462,1 53781U 22111J   23054.75418504  .00004578  00000-0  30555-3 0  9994,2 53781  53.2182 216.8055 0001259  72.0556 288.0574 15.08841607 26132,6917.875,95.437,540.611,538.87,0.0
53781.0,STARLINK-4462,PAYLOAD,2023-02-23 22:52:10,15.08848091,0.000133,53.218,215.9134,69.0032,291.1103,0.00034601,5.224e-05,0.0,0 STARLINK-4462,1 53781U 22111J   23054.95289883  .00005224  00000-0  34601-3 0  9997,2 53781  53.2180 215.9134 0001330  69.0032 291.1103 15.08848091 25353,6917.856,95.437,540.641,538.801,0.0
53781.0,STARLINK-4462,PAYLOAD,2023-02-24 03:38:22,15.08821612,0.0001136,53.2185,215.0209,79.1851,280.9269,5.104e-05,5.24e-06,0.0,0 STARLINK-4462,1 53781U 22111J   23055.15164416  .00000524  00000-0  51040-4 0  9999,2 53781  53.2185 215.0209 0001136  79.1851 280.9269 15.08821612 25389,6917.937,95.439,540.587,539.016,0.0
53781.0,STARLINK-4462,PAYLOAD,2023-02-24 13:10:40,15.0883969,9.4e-05,53.2187,213.2381,83.6187,276.4912,-0.0001181,-2.167e-05,0.0,0 STARLINK-4462,1 53781U 22111J   23055.54907827 -.00002167  00000-0 -11810-3 0  9990,2 53781  53.2187 213.2381 0000940  83.6187 276.4912 15.08839690 26253,6917.881,95.438,540.397,539.096,0.0
53781.0,STARLINK-4462,PAYLOAD,2023-02-24 14:46:03,15.0884424,0.0001154,53.2187,212.9407,81.702,278.4102,-8.0234e-05,-1.565e-05,0.0,0 STARLINK-4462,1 53781U 22111J   23055.61531447 -.00001565  00000-0 -80234-4 0  9997,2 53781  53.2187 212.9407 0001154  81.7020 278.4102 15.08844240 25452,6917.867,95.437,540.531,538.934,0.0
53781.0,STARLINK-4462,PAYLOAD,2023-02-24 21:07:34,15.08853182,0.0001209,53.2183,211.7505,80.5167,279.5962,-4.2826e-05,-9.7e-06,0.0,0 STARLINK-4462,1 53781U 22111J   23055.88026558 -.00000970  00000-0 -42826-4 0  9992,2 53781  53.2183 211.7505 0001209  80.5167 279.5962 15.08853182 25499,6917.84,95.437,540.541,538.869,0.0
53781.0,STARLINK-4462,PAYLOAD,2023-02-25 03:29:08,15.08839291,0.0001223,53.2188,210.5613,83.0121,277.1011,-0.00010403,-1.943e-05,0.0,0 STARLINK-4462,1 53781U 22111J   23056.14523516 -.00001943  00000-0 -10403-3 0  9994,2 53781  53.2188 210.5613 0001223  83.0121 277.1011 15.08839291 25534,6917.883,95.438,540.594,538.901,0.0
53781.0,STARLINK-4462,PAYLOAD,2023-02-25 13:01:27,15.08839218,0.0001145,53.219,208.7764,86.2765,273.8359,-0.00012091,-2.212e-05,0.0,0 STARLINK-4462,1 53781U 22111J   23056.54267469 -.00002212  00000-0 -12091-3 0  9995,2 53781  53.2190 208.7764 0001145  86.2765 273.8359 15.08839218 26409,6917.883,95.438,540.54,538.956,0.0
53781.0,STARLINK-4462,PAYLOAD,2023-02-25 17:47:36,15.08846132,0.0001244,53.218,207.8851,83.2796,276.8338,-0.00011574,-2.13e-05,0.0,0 STARLINK-4462,1 53781U 22111J   23056.74139061 -.00002130  00000-0 -11574-3 0  9997,2 53781  53.2180 207.8851 0001244  83.2796 276.8338 15.08846132 25622,6917.862,95.437,540.587,538.866,0.0
53781.0,STARLINK-4462,PAYLOAD,2023-02-25 19:22:59,15.08848887,0.0001249,53.2181,207.5879,83.0357,277.0777,-9.002e-05,-1.721e-05,0.0,0 STARLINK-4462,1 53781U 22111J   23056.80762770 -.00001721  00000-0 -90020-4 0  9992,2 53781  53.2181 207.5879 0001249  83.0357 277.0777 15.08848887 26446,6917.853,95.437,540.582,538.854,0.0
53781.0,STARLINK-4462,PAYLOAD,2023-02-26 03:19:54,15.08853277,0.0001226,53.2182,206.1011,79.5073,280.6058,-9.8928e-05,-1.863e-05,0.0,0 STARLINK-4462,1 53781U 22111J   23057.13882329 -.00001863  00000-0 -98928-4 0  9994,2 53781  53.2182 206.1011 0001226  79.5073 280.6058 15.08853277 25686,6917.84,95.437,540.553,538.857,0.0
53781.0,STARLINK-4462,PAYLOAD,2023-02-26 12:52:12,15.08845825,0.0001215,53.2182,204.317,84.9175,275.1956,9.9878e-05,1.302e-05,0.0,0 STARLINK-4462,1 53781U 22111J   23057.53626032  .00001302  00000-0  99878-4 0  9996,2 53781  53.2182 204.3170 0001215  84.9175 275.1956 15.08845825 26556,6917.863,95.437,540.568,538.887,0.0
